{"type":"FeatureCollection","features":[{"type":"Feature","properties":{},"geometry":{"type":"MultiPolygon","coordinates":[[[[-6.345333105549858,53.321898998891],[-6.342167840958856,53.32163106682376],[-6.345959286179215,53.32587373314857],[-6.345273943665753,53.327552296716796],[-6.350146498282076,53.32959689944334],[-6.349149857782287,53.33026922076514],[-6.350628525943233,53.3316958313208],[-6.3772904396872505,53.32854066924872],[-6.385771136694562,53.33701249793817],[-6.386970211151572,53.33978127734075],[-6.386745215249871,53.343569654399026],[-6.383528542880068,53.34276876314757],[-6.38036969252744,53.343943666375225],[-6.379721378542323,53.34509805856571],[-6.3704853928342295,53.34362489760662],[-6.369078217547995,53.346253500055965],[-6.362879600004171,53.34529218216867],[-6.3625856657632545,53.346771012362126],[-6.3609532563840645,53.34683757975632],[-6.3597032720497335,53.35312221415542],[-6.356848623844895,53.3522908992429],[-6.35572986673245,53.35375169124071],[-6.3523281113323,53.353780813797364],[-6.351166025426267,53.354866912733485],[-6.356337238321144,53.358202715484985],[-6.3492893858454815,53.36964112968659],[-6.337561436448222,53.37117951622507],[-6.333794579095432,53.370830930993144],[-6.331833368918997,53.3720903341995],[-6.332828878533217,53.375613088970645],[-6.334020595652781,53.37579114491675],[-6.333423555593911,53.37787605466658],[-6.331740922618963,53.37788057188397],[-6.329023644573985,53.37937850637554],[-6.322036591585343,53.379671468283775],[-6.321024607211416,53.38264328788539],[-6.322162678731032,53.38315908600603],[-6.319900758355898,53.38677077112046],[-6.321008047321289,53.389151922815586],[-6.319213677896175,53.39136754354115],[-6.321237741239824,53.39238141337939],[-6.320551268085172,53.39441268834661],[-6.319131414854265,53.39434978923828],[-6.319793966005926,53.39745130934876],[-6.318361729143559,53.400418956959946],[-6.314196299516339,53.399303969456966],[-6.311016367009786,53.40241367355623],[-6.308274507222448,53.40279501191265],[-6.30812851798297,53.40187546885578],[-6.302905439937268,53.40079288202569],[-6.302791198903298,53.400237571294014],[-6.301090734382726,53.40039204698365],[-6.29132167785342,53.398029872022285],[-6.290680910493757,53.399799352114506],[-6.291569093944583,53.40161655036899],[-6.291688482586077,53.40661433293678],[-6.271717951173781,53.40548031279167],[-6.269946499752703,53.4050753697011],[-6.268533631251412,53.40221989330398],[-6.252219887603372,53.39923742532946],[-6.245045755170511,53.39732398903115],[-6.244120975117534,53.3985417368952],[-6.236900183696047,53.39707677850715],[-6.235205025607959,53.40026520963783],[-6.2256949815055735,53.41099182691205],[-6.222953117368614,53.4104622577935],[-6.21644573219115,53.4106103623354],[-6.198865526816221,53.40732873077144],[-6.191968381126134,53.407287688489745],[-6.190390614736145,53.406566762868565],[-6.186210409806043,53.40611913706958],[-6.179931385265418,53.40638908557503],[-6.17770544331743,53.40698772349823],[-6.172912118730157,53.40662983170448],[-6.170801158866948,53.407853530563415],[-6.165022093564001,53.40930028163019],[-6.150298217680511,53.407391032517836],[-6.149063486173539,53.40680002175959],[-6.1487978239123,53.40444255148449],[-6.150375712903965,53.3979103102303],[-6.154040308335536,53.3928791955261],[-6.157424954674708,53.39032423965779],[-6.152934745894824,53.38934614099165],[-6.142857706853227,53.38460213976549],[-6.159095926203584,53.37766432165446],[-6.162488718839779,53.37432669470164],[-6.161490198509872,53.37327224243959],[-6.1577604216640625,53.3726759071982],[-6.155944212285772,53.37316986548221],[-6.154975578485203,53.37238205030905],[-6.152999152925558,53.37229520208006],[-6.152336948440417,53.373516482576306],[-6.150351545585192,53.37411288102572],[-6.149603502086812,53.375912727936516],[-6.147676343026851,53.37679896637254],[-6.147294365186907,53.376456454749615],[-6.148941876693487,53.37549217283745],[-6.147003045622118,53.37495941763306],[-6.1423557530268065,53.37767910497566],[-6.137311875983768,53.37944297030471],[-6.129734021489764,53.38097078291539],[-6.126778998371993,53.38072861174617],[-6.121922301703633,53.38133125771373],[-6.114589618973177,53.38317677713482],[-6.113112398623104,53.38285051798303],[-6.116835145665829,53.37969240457078],[-6.134091091677861,53.37352213457534],[-6.1414862009279965,53.37001310114907],[-6.154641316158405,53.361802062125996],[-6.16467543999183,53.35334722334401],[-6.165199526498633,53.35249625090418],[-6.1620172579838455,53.350741347483016],[-6.179375584681472,53.35925071544306],[-6.176363942143983,53.35859520788283],[-6.1734478173785226,53.35945802750519],[-6.173110623372695,53.36140414435608],[-6.1716168366460495,53.36181147683784],[-6.172461378192177,53.36191549208021],[-6.171925627418282,53.362356184032556],[-6.170346972262956,53.36339051299577],[-6.168907101436918,53.36255944194759],[-6.169659191049859,53.36351885115357],[-6.170299299260689,53.36338899104944],[-6.169497545145093,53.364062999029976],[-6.16830684828037,53.36450051127008],[-6.166877355751768,53.36353276543025],[-6.16825784415756,53.36452088135992],[-6.168855404081845,53.36450202738971],[-6.166737488137918,53.365896747713784],[-6.166074488871183,53.363942740608294],[-6.166418058483401,53.36578230946842],[-6.165779160190856,53.36602418780807],[-6.166827367163586,53.36612522481321],[-6.164474313933285,53.36867437131714],[-6.161134275083957,53.3695131344234],[-6.159183379762957,53.370903986796236],[-6.15764957659174,53.37004433142083],[-6.158991921198685,53.371050120961016],[-6.158531712817863,53.37145230815545],[-6.156604184677862,53.370757833905664],[-6.1537604974459565,53.37135286451265],[-6.156551248553581,53.370822666192346],[-6.158285038110985,53.37159482977847],[-6.158035876844716,53.372368519466114],[-6.162137123803413,53.372797157983385],[-6.165025409120867,53.3726107954115],[-6.16529087759392,53.37147893773166],[-6.166794231941163,53.371152849049224],[-6.175638515691364,53.364354164283746],[-6.181966454737344,53.36088410620217],[-6.181119238267756,53.36017371023023],[-6.181857681212454,53.36049006882434],[-6.191775628745614,53.35774714459079],[-6.193740936139586,53.35771132438089],[-6.203208191651639,53.35979214957961],[-6.204674356305796,53.35979298722298],[-6.205148586810731,53.35925818857121],[-6.205631433987681,53.35979739750579],[-6.212158042436524,53.36006550131512],[-6.22057740475307,53.36257857639893],[-6.224189729639062,53.36065348713509],[-6.2337836076995785,53.35809186035515],[-6.2310889438845605,53.357323293209674],[-6.227009340511362,53.35918861624158],[-6.217949581638194,53.357099047383805],[-6.210427731771206,53.35669165120008],[-6.2107797974059125,53.35362231149227],[-6.19593697953049,53.3532095106391],[-6.195642871855985,53.350406084987114],[-6.191717541774896,53.35043656649358],[-6.191783278466292,53.34980520664636],[-6.190815073249549,53.3497542077463],[-6.190782586668375,53.350478335291434],[-6.189198435239475,53.35035261046437],[-6.1897835479608725,53.3464779356599],[-6.191482183435498,53.34652934895982],[-6.19118746049318,53.348314424430924],[-6.19332573384155,53.34828466060952],[-6.192890257920776,53.345156047584474],[-6.197589788564007,53.344963541477014],[-6.198642856452937,53.348119177012165],[-6.200082501047374,53.34805475255094],[-6.200332264759967,53.34511307909276],[-6.203028925560379,53.345195674384094],[-6.2032073055039465,53.344682672277564],[-6.212423790398352,53.34544709372587],[-6.215927648664957,53.34860766051478],[-6.2218037309177765,53.34891608618674],[-6.221435722452851,53.348069533351804],[-6.218852681796723,53.34779808935842],[-6.22150992167304,53.34797398967992],[-6.222781466546295,53.34947886017958],[-6.224101171617875,53.3469674623403],[-6.217260391104185,53.346483956730054],[-6.2163392740938805,53.34573652073487],[-6.227242440787581,53.34650154773735],[-6.227317122928617,53.34505384683623],[-6.226622940392126,53.34484628617137],[-6.217303499548674,53.34334497723469],[-6.214990756418203,53.343874351085674],[-6.197940177587687,53.34236511344355],[-6.198905271166882,53.34068855635588],[-6.201384189041811,53.34095576572085],[-6.19888596683052,53.34058750710922],[-6.197489156510229,53.34191885745991],[-6.195277371191284,53.34191243786169],[-6.195023943125102,53.3412000361966],[-6.193192691587221,53.341165376959076],[-6.193383976851659,53.33977474093463],[-6.192521936286205,53.341198917149356],[-6.1856829703860905,53.340692819963635],[-6.159742891382472,53.34114664972737],[-6.151123166009783,53.342160214185775],[-6.159635747040042,53.341025372120725],[-6.179129002911799,53.3405533281082],[-6.179780424352126,53.33914809833791],[-6.18175404653194,53.33900647508393],[-6.182634411500407,53.33757371895876],[-6.192466545325668,53.33743616707487],[-6.194478331720331,53.33508899645057],[-6.208109491989154,53.33653683201554],[-6.209580606215941,53.337252853832794],[-6.21297533256061,53.33438927845765],[-6.210664464373302,53.332752501067745],[-6.208973557911445,53.33027659936354],[-6.206301024244959,53.32435248764371],[-6.205772131216789,53.3190559702777],[-6.203615139050883,53.31576099936094],[-6.199159583184151,53.312742428464915],[-6.20102873346551,53.31180388775483],[-6.205232545728831,53.3122549324283],[-6.2111816586717685,53.31106063810838],[-6.210846530832038,53.310702301687265],[-6.213487461329386,53.31119745044999],[-6.213529283475919,53.312209539997355],[-6.2155830210454015,53.311691473436596],[-6.217611714596955,53.30992761641275],[-6.2233212184602005,53.311588829460234],[-6.226854637497695,53.31116305297883],[-6.229825322301824,53.314225456608945],[-6.232310681225777,53.31332666506331],[-6.233422170342997,53.31481460903313],[-6.233866585551474,53.31417086795743],[-6.236740470500052,53.314525576943495],[-6.238343936163201,53.3134459356018],[-6.238477256591185,53.313458834396876],[-6.238477256084544,53.31345883470807],[-6.239607481709923,53.313568181174205],[-6.240662975899646,53.31367716087139],[-6.246047011681155,53.312393762217816],[-6.249002042370421,53.30834919727254],[-6.254547797379715,53.307857054643314],[-6.259040300304607,53.30830661400551],[-6.259797454238587,53.30630114183413],[-6.265898206361989,53.306595682550615],[-6.268638571763181,53.30378881254569],[-6.274599972177818,53.304964781705905],[-6.283285508402148,53.30514019852301],[-6.2864631596784,53.304374916535984],[-6.286595015147574,53.30140158439812],[-6.291914897970931,53.29888211762658],[-6.29649478316813,53.30230930607403],[-6.2974563526017535,53.301713175449024],[-6.301200911595474,53.30704311271617],[-6.3026799062816865,53.310246069197454],[-6.299689489024576,53.312025013133066],[-6.3096858671760225,53.31377005901502],[-6.31694677635382,53.31631925985372],[-6.326788422566113,53.317032423946465],[-6.335486745501805,53.316838026898054],[-6.340429646227334,53.31893102062551],[-6.342838901764722,53.31917345329315],[-6.345135675258204,53.32060422985131],[-6.345333105549858,53.321898998891]],[[-6.2035602654778605,53.3412764901989],[-6.201758939243362,53.341011002023976],[-6.203001851357371,53.34172473475091],[-6.2035602654778605,53.3412764901989]],[[-6.236602388360839,53.31499158647109],[-6.237187575424518,53.31425097022079],[-6.237187574515255,53.314250970779256],[-6.236602388360839,53.31499158647109]],[[-6.282495801836261,53.382660538311825],[-6.28249580028796,53.38266053877793],[-6.283373181945809,53.38261441280065],[-6.282495801836261,53.382660538311825]],[[-6.315387964797137,53.38985305175465],[-6.315387965002041,53.38985305179883],[-6.315477099743774,53.389025858194884],[-6.315387964797137,53.38985305175465]]],[[[-6.238477256591185,53.313458834396876],[-6.238744789025622,53.31329450855539],[-6.239607481709923,53.313568181174205],[-6.238477256591185,53.313458834396876]]]]}}]}